NORAD_CAT_ID,OBJECT_NAME,OBJECT_TYPE,EPOCH,MEAN_MOTION,ECCENTRICITY,INCLINATION,RA_OF_ASC_NODE,ARG_OF_PERICENTER,MEAN_ANOMALY,BSTAR,MEAN_MOTION_DOT,MEAN_MOTION_DDOT,TLE_LINE0,TLE_LINE1,TLE_LINE2,SEMIMAJOR_AXIS,PERIOD,APOGEE,PERIGEE,DECAYED
51775.0,STARLINK-3620,PAYLOAD,2024-07-15 06:50:37,15.08840798,0.0001438,53.218,163.4213,97.2564,262.8592,9.5294e-05,1.229e-05,0.0,0 STARLINK-3620,1 51775U 22017H   24197.28515353  .00001229  00000-0  95294-4 0  9999,2 51775  53.2180 163.4213 0001438  97.2564 262.8592 15.08840798131666,6917.878,95.438,540.738,538.748,0.0
51775.0,STARLINK-3620,PAYLOAD,2024-07-15 14:47:32,15.08853152,0.000144,53.2174,161.9322,82.886,277.2296,0.00013747,1.901e-05,0.0,0 STARLINK-3620,1 51775U 22017H   24197.61634395  .00001901  00000-0  13747-3 0  9993,2 51775  53.2174 161.9322 0001440  82.8860 277.2296 15.08853152133161,6917.84,95.437,540.701,538.709,0.0
51775.0,STARLINK-3620,PAYLOAD,2024-07-16 05:06:01,15.08834328,0.0001488,53.2171,159.2563,87.9879,272.1283,3.6696e-05,2.96e-06,0.0,0 STARLINK-3620,1 51775U 22017H   24198.21252024  .00000296  00000-0  36696-4 0  9990,2 51775  53.2171 159.2563 0001488  87.9879 272.1283 15.08834328133257,6917.898,95.438,540.792,538.733,0.0
51775.0,STARLINK-3620,PAYLOAD,2024-07-16 06:41:24,15.08837371,0.0001516,53.2166,158.958,86.1746,273.9419,5.776e-05,6.31e-06,0.0,0 STARLINK-3620,1 51775U 22017H   24198.27875792  .00000631  00000-0  57760-4 0  9997,2 51775  53.2166 158.9580 0001516  86.1746 273.9419 15.08837371131813,6917.888,95.438,540.802,538.705,0.0
51775.0,STARLINK-3620,PAYLOAD,2024-07-17 04:56:48,15.08844786,0.0001333,53.2164,154.7965,97.1538,262.9606,4.0408e-05,3.55e-06,0.0,0 STARLINK-3620,1 51775U 22017H   24199.20611404  .00000355  00000-0  40408-4 0  9993,2 51775  53.2164 154.7965 0001333  97.1538 262.9606 15.08844786133401,6917.866,95.437,540.653,538.809,0.0
51775.0,STARLINK-3620,PAYLOAD,2024-07-17 14:29:06,15.08857339,0.0001376,53.2169,153.0113,85.6522,274.4628,0.00010415,1.371e-05,0.0,0 STARLINK-3620,1 51775U 22017H   24199.60354390  .00001371  00000-0  10415-3 0  9998,2 51775  53.2169 153.0113 0001376  85.6522 274.4628 15.08857339132011,6917.827,95.436,540.644,538.74,0.0
51775.0,STARLINK-3620,PAYLOAD,2024-07-18 03:12:12,15.08841146,0.0001456,53.2156,150.63,113.9606,246.1538,7.1074e-05,8.43e-06,0.0,0 STARLINK-3620,1 51775U 22017H   24200.13347481  .00000843  00000-0  71074-4 0  9994,2 51775  53.2156 150.6300 0001456 113.9606 246.1538 15.08841146133549,6917.877,95.437,540.749,538.735,0.0
51775.0,STARLINK-3620,PAYLOAD,2024-07-18 14:19:54,15.08844983,0.0001622,53.2176,148.5472,105.0299,255.0873,0.00011198,1.495e-05,0.0,0 STARLINK-3620,1 51775U 22017H   24200.59715407  .00001495  00000-0  11198-3 0  9995,2 51775  53.2176 148.5472 0001622 105.0299 255.0873 15.08844983132162,6917.865,95.437,540.852,538.608,0.0
51775.0,STARLINK-3620,PAYLOAD,2024-07-19 03:02:59,15.08838564,0.0001752,53.2172,146.1683,116.1677,243.9495,6.0288e-05,6.71e-06,0.0,0 STARLINK-3620,1 51775U 22017H   24201.12707861  .00000671  00000-0  60288-4 0  9990,2 51775  53.2172 146.1683 0001752 116.1677 243.9495 15.08838564133696,6917.885,95.438,540.962,538.538,0.0
51775.0,STARLINK-3620,PAYLOAD,2024-07-20 12:26:04,15.08852436,0.0001342,53.2166,139.9286,100.7094,259.405,0.00021389,3.119e-05,0.0,0 STARLINK-3620,1 51775U 22017H   24202.51811249  .00003119  00000-0  21389-3 0  9998,2 51775  53.2166 139.9286 0001342 100.7094 259.4050 15.08852436133902,6917.842,95.437,540.636,538.779,0.0
51775.0,STARLINK-3620,PAYLOAD,2024-07-21 02:44:34,15.08828814,0.0001421,53.2172,137.2604,103.3474,256.7676,6.4134e-05,7.33e-06,0.0,0 STARLINK-3620,1 51775U 22017H   24203.11428706  .00000733  00000-0  64134-4 0  9992,2 51775  53.2172 137.2604 0001421 103.3474 256.7676 15.08828814133999,6917.915,95.438,540.763,538.797,0.0
51775.0,STARLINK-3620,PAYLOAD,2024-07-22 05:46:07,15.0884165,0.0001458,53.2166,132.2013,114.258,245.8565,0.00011716,1.577e-05,0.0,0 STARLINK-3620,1 51775U 22017H   24204.24036433  .00001577  00000-0  11716-3 0  9993,2 51775  53.2166 132.2013 0001458 114.2580 245.8565 15.08841650134169,6917.875,95.437,540.749,538.732,0.0
51775.0,STARLINK-3620,PAYLOAD,2024-07-22 18:29:11,15.0886011,0.0001352,53.2166,129.8198,95.2859,264.8287,0.00030282,4.537e-05,0.0,0 STARLINK-3620,1 51775U 22017H   24204.77027378  .00004537  00000-0  30282-3 0  9997,2 51775  53.2166 129.8198 0001352  95.2859 264.8287 15.08860110134248,6917.819,95.436,540.619,538.749,0.0
51775.0,STARLINK-3620,PAYLOAD,2024-07-23 11:58:25,15.08872548,0.0001392,53.2158,126.5454,84.9501,275.165,0.00052686,8.114e-05,0.0,0 STARLINK-3620,1 51775U 22017H   24205.49890319  .00008114  00000-0  52686-3 0  9997,2 51775  53.2158 126.5454 0001392  84.9501 275.1650 15.08872548132909,6917.781,95.435,540.609,538.683,0.0
51775.0,STARLINK-3620,PAYLOAD,2024-07-23 18:19:59,15.08829861,0.0001875,53.2141,125.3597,72.9241,287.1956,-0.00059525,-9.747e-05,0.0,0 STARLINK-3620,1 51775U 22017H   24205.76387853 -.00009747  00000-0 -59525-3 0  9995,2 51775  53.2141 125.3597 0001875  72.9241 287.1956 15.08829861134397,6917.911,95.438,541.073,538.479,0.0
51775.0,STARLINK-3620,PAYLOAD,2024-07-24 02:16:55,15.08817176,0.0001265,53.2152,123.8721,83.2083,276.9053,-0.00077723,-0.00012628,0.0,0 STARLINK-3620,1 51775U 22017H   24206.09508205 -.00012628  00000-0 -77723-3 0  9990,2 51775  53.2152 123.8721 0001265  83.2083 276.9053 15.08817176134449,6917.95,95.439,540.69,538.94,0.0
51775.0,STARLINK-3620,PAYLOAD,2024-07-24 18:10:47,15.08824731,0.0001351,53.2154,120.8959,110.0215,250.0922,0.0014421,0.00022728,0.0,0 STARLINK-3620,1 51775U 22017H   24206.75749521  .00022728  00000-0  14421-2 0  9996,2 51775  53.2154 120.8959 0001351 110.0215 250.0922 15.08824731134547,6917.927,95.439,540.727,538.857,0.0
51775.0,STARLINK-3620,PAYLOAD,2024-07-24 22:56:56,15.08847677,0.0001296,53.2152,120.0051,113.6467,246.4662,0.001945,0.00030809,0.0,0 STARLINK-3620,1 51775U 22017H   24206.95621338  .00030809  00000-0  19450-2 0  9999,2 51775  53.2152 120.0051 0001296 113.6467 246.4662 15.08847677133123,6917.857,95.437,540.618,538.825,0.0
51775.0,STARLINK-3620,PAYLOAD,2024-07-25 03:43:05,15.08868765,0.0001276,53.2148,119.1123,116.9494,243.1629,0.0023693,0.00037651,0.0,0 STARLINK-3620,1 51775U 22017H   24207.15492958  .00037651  00000-0  23693-2 0  9992,2 51775  53.2148 119.1123 0001276 116.9494 243.1629 15.08868765134603,6917.792,95.436,540.54,538.775,0.0
51775.0,STARLINK-3620,PAYLOAD,2024-07-26 00:23:06,15.08839916,8.75e-05,53.215,115.2465,117.9524,242.1556,0.00054045,8.324e-05,0.0,0 STARLINK-3620,1 51775U 22017H   24208.01604315  .00008324  00000-0  54045-3 0  9991,2 51775  53.2150 115.2465 0000875 117.9524 242.1556 15.08839916134739,6917.881,95.438,540.351,539.14,0.0
51775.0,STARLINK-3620,PAYLOAD,2024-07-26 17:52:21,15.08857882,0.0001071,53.215,111.9742,93.8498,266.2617,0.0033457,0.00053388,0.0,0 STARLINK-3620,1 51775U 22017H   24208.74469028  .00053388  00000-0  33457-2 0  9994,2 51775  53.2150 111.9742 0001071  93.8498 266.2617 15.08857882133399,6917.826,95.436,540.432,538.95,0.0
51775.0,STARLINK-3620,PAYLOAD,2024-07-27 22:29:18,15.0883113,0.0001497,53.2165,106.6221,101.6205,258.4955,0.00078382,0.00012205,0.0,0 STARLINK-3620,1 51775U 22017H   24209.93702511  .00012205  00000-0  78382-3 0  9993,2 51775  53.2165 106.6221 0001497 101.6205 258.4955 15.08831130133570,6917.908,95.438,540.808,538.737,0.0
51775.0,STARLINK-3620,PAYLOAD,2024-07-28 04:50:51,15.08837092,0.0001263,53.2157,105.4331,88.8721,271.2416,0.00067112,0.00010408,0.0,0 STARLINK-3620,1 51775U 22017H   24210.20198566  .00010408  00000-0  67112-3 0  9996,2 51775  53.2157 105.4331 0001263  88.8721 271.2416 15.08837092135064,6917.889,95.438,540.628,538.881,0.0
51775.0,STARLINK-3620,PAYLOAD,2024-07-28 22:20:05,15.08850764,0.0001227,53.2167,102.1682,93.7987,266.3146,0.00053063,8.17e-05,0.0,0 STARLINK-3620,1 51775U 22017H   24210.93062263  .00008170  00000-0  53063-3 0  9993,2 51775  53.2167 102.1682 0001227  93.7987 266.3146 15.08850764133724,6917.847,95.437,540.561,538.864,0.0
51775.0,STARLINK-3620,PAYLOAD,2024-07-29 09:27:46,15.08871961,0.000142,53.2172,100.0827,95.5778,264.5376,0.00091547,0.00014324,0.0,0 STARLINK-3620,1 51775U 22017H   24211.39429368  .00014324  00000-0  91547-3 0  9994,2 51775  53.2172 100.0827 0001420  95.5778 264.5376 15.08871961135247,6917.783,95.436,540.63,538.665,0.0
51775.0,STARLINK-3620,PAYLOAD,2024-07-29 20:35:29,15.08849544,0.0001415,53.2175,98.0024,95.3076,264.8078,8.9118e-05,1.131e-05,0.0,0 STARLINK-3620,1 51775U 22017H   24211.85797462  .00001131  00000-0  89118-4 0  9992,2 51775  53.2175  98.0024 0001415  95.3076 264.8078 15.08849544135310,6917.851,95.437,540.695,538.737,0.0
51775.0,STARLINK-3620,PAYLOAD,2024-07-29 22:10:52,15.08850056,0.0001445,53.2175,97.7052,94.4501,265.6656,0.00014083,1.955e-05,0.0,0 STARLINK-3620,1 51775U 22017H   24211.92421429  .00001955  00000-0  14083-3 0  9999,2 51775  53.2175  97.7052 0001445  94.4501 265.6656 15.08850056133873,6917.85,95.437,540.714,538.715,0.0
51775.0,STARLINK-3620,PAYLOAD,2024-07-30 09:18:33,15.08864792,0.0001477,53.2174,95.6234,87.8795,272.2367,0.00096966,0.00015188,0.0,0 STARLINK-3620,1 51775U 22017H   24212.38788933  .00015188  00000-0  96966-3 0  9999,2 51775  53.2174  95.6234 0001477  87.8795 272.2367 15.08864792135391,6917.805,95.436,540.691,538.648,0.0
51775.0,STARLINK-3620,PAYLOAD,2024-07-30 15:40:06,15.08863515,0.0002404,53.2169,94.435,90.7688,269.3579,0.00084153,0.00013139,0.0,0 STARLINK-3620,1 51775U 22017H   24212.65285238  .00013139  00000-0  84153-3 0  9998,2 51775  53.2169  94.4350 0002404  90.7688 269.3579 15.08863515135435,6917.809,95.436,541.337,538.01,0.0
51775.0,STARLINK-3620,PAYLOAD,2024-07-30 22:01:38,15.08849703,0.0001589,53.2166,93.2426,90.1707,269.9467,0.00072003,0.00011193,0.0,0 STARLINK-3620,1 51775U 22017H   24212.91781164  .00011193  00000-0  72003-3 0  9995,2 51775  53.2166  93.2426 0001589  90.1707 269.9467 15.08849703134021,6917.851,95.437,540.815,538.616,0.0
